UMBRA-09                
1 60541U 24149CB  26178.21764759  .00013042  00000+0  63817-3 0  9998
2 60541  97.6973 265.5961 0001148 238.6746 121.4375 15.18329921102246
QPS-SAR-8 (AMATERU-IV)  
1 60542U 24149CC  26178.17217764  .00006718  00000+0  48745-3 0  9998
2 60542  97.6664 257.2377 0004159  85.3484 274.8216 15.04227149101772
ARCTIC WEATHER SATELLITE
1 60543U 24149CD  26178.29559304  .00000826  00000+0  91729-4 0  9996
2 60543  97.6799 248.4723 0003659  85.1359 275.0276 14.89797603100803
CAPELLA-15 (ACADIA-5)   
1 60544U 24149CE  26178.24558394  .00003722  00000+0  36900-3 0  9997
2 60544  97.6775 250.8975 0004239  47.2614 312.8961 14.92382424101359
HAWK-10B                
1 60545U 24149CF  26178.13203988  .00001328  00000+0  12183-3 0  9999
2 60545  97.6809 253.2178 0006410  66.4475 293.7419 14.96539240101473
ICEYE-X39               
1 60546U 24149CG  26178.15044681  .00003649  00000+0  29845-3 0  9996
2 60546  97.6763 255.0380 0006354  93.1643 267.0307 14.99953316101612
UMBRA-10                
1 60547U 24149CH  26178.21720663  .00016951  00000+0  82786-3 0  9998
2 60547  97.6982 265.6240 0000433 162.0682 198.0566 15.18335089102253
ICEYE-X33               
1 60548U 24149CJ  26178.16934347  .00004949  00000+0  39325-3 0  9994
2 60548  97.7453 257.2786 0003531   4.3318 355.7936 15.00911243101701
ICEYE-X40               
1 60549U 24149CK  26178.18884487  .00001155  00000+0  10277-3 0  9997
2 60549  97.6813 254.5246 0005736  52.3488 307.8254 14.97970576101577
SATELIOT_1              
1 60550U 24149CL  26178.17914347  .00001654  00000+0  14455-3 0  9993
2 60550  97.6758 253.9119 0007910  49.7764 310.4149 14.98110438101568
BRO-14                  
1 60551U 24149CM  26178.16017213  .00001733  00000+0  15873-3 0  9992
2 60551  97.6875 253.7587 0008175  70.8513 289.3593 14.96200249101483
SATELIOT_3              
1 60552U 24149CN  26178.22184513  .00002557  00000+0  22087-3 0  9998
2 60552  97.6818 254.7528 0006140  63.9464 296.2390 14.98092733101587
BRO-15                  
1 60553U 24149CP  26178.20960624  .00002614  00000+0  23695-3 0  9992
2 60553  97.6805 253.4005 0009073  61.5980 298.6155 14.96176770101504
UM5-RIBAT               
1 60554U 24149CQ  26178.20442747  .00003257  00000+0  25896-3 0  9993
2 60554  97.6628 255.8694 0002755  45.2909 314.8539 15.01128067101698
UM5-EOSAT               
1 60555U 24149CR  26177.76788001  .00004201  00000+0  32830-3 0  9996
2 60555  97.6745 256.3923 0009118  86.2337 273.9930 15.01603700101658
LASARSAT                
1 62391U 24247Q   26178.24564054  .00031535  00000+0  61601-3 0  9997
2 62391  44.9725 205.6685 0007127  32.7505 327.3826 15.46939877 84872
CROCUBE                 
1 62394U 24247T   26177.77950222  .00035343  00000+0  64439-3 0  9996
2 62394  44.9695 205.4645 0006927  34.5174 325.6166 15.48873131 84830
TEVEL2-4                
1 63213U 25052D   26178.22278874  .00019955  00000+0  58985-3 0  9999
2 63213  97.3900  74.6325 0004819  85.3074 274.8720 15.34955968 71655
TEVEL2-5                
1 63214U 25052E   26178.24443246  .00020235  00000+0  60145-3 0  9993
2 63214  97.3898  74.5989 0004804  85.8149 274.3643 15.34779098 71656
TEVEL2-6                
1 63215U 25052F   26178.25699217  .00020324  00000+0  60478-3 0  9994
2 63215  97.3903  74.5963 0004643  86.9832 273.1942 15.34743866 71651
TEVEL2-1                
1 63217U 25052H   26178.22433366  .00018970  00000+0  57458-3 0  9992
2 63217  97.3871  74.1759 0004995  94.4509 265.7304 15.34194637 71634
TEVEL2-3                
1 63218U 25052J   26178.21860599  .00019485  00000+0  58900-3 0  9999
2 63218  97.3877  74.1933 0004858  95.2492 264.9305 15.34253406 71635
TEVEL2-2                
1 63219U 25052K   26178.22458635  .00019407  00000+0  58752-3 0  9994
2 63219  97.3873  74.1789 0005008  94.7391 265.4424 15.34205693 71634
TEVEL2-9                
1 63237U 25052AD  26178.21505297  .00017853  00000+0  57551-3 0  9999
2 63237  97.3934  73.5229 0008293 104.2052 256.0111 15.32198035 71564
TEVEL2-7                
1 63238U 25052AE  26178.19258945  .00017572  00000+0  57189-3 0  9997
2 63238  97.3939  73.4122 0008360 104.5251 255.6918 15.31893747 71550
TEVEL2-8                
1 63239U 25052AF  26177.22110573  .00017980  00000+0  58597-3 0  9992
2 63239  97.3937  72.4192 0008385 107.6731 252.5427 15.31844407 71403
FORESAIL-1 PRIME        
1 66778U 25276DS  26178.14301976  .00005433  00000+0  26440-3 0  9994
2 66778  97.4203 251.2317 0003890  83.4614 276.7063 15.18788261 31910
